CTC1_L_00493024-03
1 61821U 23796XF  26070.40837963  .00000000  00000+0  00000-0 0  9999
2 61821 100.3000 276.0000 0000000   0.0000 228.0000 13.03091871    15
CTC1_L_00493024-04
1 61822U 22942PL  26070.40837963  .00000000  00000+0  00000-0 0  9992
2 61822 100.3000 276.0000 0000000   0.0000 273.0000 13.03091871    16
CTC1_L_00493024-05
1 61823U 22805VZ  26070.40837963  .00000000  00000+0  00000-0 0  9991
2 61823 100.3000 276.0000 0000000   0.0000 318.0000 13.03091871    17
CTC1_L_00493024-06
1 61824U 23669OQ  26070.40837963  .00000000  00000+0  00000-0 0  9991
2 61824 100.3000 276.0000 0000000   0.0000   3.0000 13.03091871    19
CTC1_L_00493024-07
1 61825U 25220UP  26070.40837963  .00000000  00000+0  00000-0 0  9997
2 61825 100.3000 276.0000 0000000   0.0000  48.0000 13.03091871    19
CTC1_L_00493024-08
1 61826U 22530AL  26070.40837963  .00000000  00000+0  00000-0 0  9999
2 61826 100.3000 276.0000 0000000   0.0000  93.0000 13.03091871    10
CTC1_L_00493025-01
1 61827U 26311LI  26070.40837963  .00000000  00000+0  00000-0 0  9991
2 61827 100.3000 288.0000 0000000   0.0000 144.0000 13.03091871    11
CTC1_L_00493025-02
1 61828U 26569IA  26070.40837963  .00000000  00000+0  00000-0 0  9997
2 61828 100.3000 288.0000 0000000   0.0000 189.0000 13.03091871    11
CTC1_L_00493025-03
1 61829U 26446JU  26070.40837963  .00000000  00000+0  00000-0 0  9992
2 61829 100.3000 288.0000 0000000   0.0000 234.0000 13.03091871    13
CTC1_L_00493025-04
1 61830U 24501ZB  26070.40837963  .00000000  00000+0  00000-0 0  9994
2 61830 100.3000 288.0000 0000000   0.0000 279.0000 13.03091871    14
CTC1_L_00493025-05
1 61831U 26284H   26070.40837963  .00000000  00000+0  00000-0 0  9995
2 61831 100.3000 288.0000 0000000   0.0000 324.0000 13.03091871    16
CTC1_L_00493025-06
1 61832U 23633KX  26070.40837963  .00000000  00000+0  00000-0 0  9991
2 61832 100.3000 288.0000 0000000   0.0000   9.0000 13.03091871    17
CTC1_L_00493025-07
1 61833U 25859UR  26070.40837963  .00000000  00000+0  00000-0 0  9994
2 61833 100.3000 288.0000 0000000   0.0000  54.0000 13.03091871    18
CTC1_L_00493025-08
1 61834U 25459RY  26070.40837963  .00000000  00000+0  00000-0 0  9991
2 61834 100.3000 288.0000 0000000   0.0000  99.0000 13.03091871    18
CTC1_L_00493026-01
1 61835U 26862TV  26070.40837963  .00000000  00000+0  00000-0 0  9991
2 61835 100.3000 300.0000 0000000   0.0000 150.0000 13.03091871    12
CTC1_L_00493026-02
1 61836U 22165OG  26070.40837963  .00000000  00000+0  00000-0 0  9994
2 61836 100.3000 300.0000 0000000   0.0000 195.0000 13.03091871    12
CTC1_L_00493026-03
1 61837U 22341OC  26070.40837963  .00000000  00000+0  00000-0 0  9991
2 61837 100.3000 300.0000 0000000   0.0000 240.0000 13.03091871    14
CTC1_L_00493026-04
1 61838U 23144KM  26070.40837963  .00000000  00000+0  00000-0 0  9994
2 61838 100.3000 300.0000 0000000   0.0000 285.0000 13.03091871    14
CTC1_L_00493026-05
1 61839U 23179NM  26070.40837963  .00000000  00000+0  00000-0 0  9993
2 61839 100.3000 300.0000 0000000   0.0000 330.0000 13.03091871    16
CTC1_L_00493026-06
1 61840U 26632FA  26070.40837963  .00000000  00000+0  00000-0 0  9992
2 61840 100.3000 300.0000 0000000   0.0000  15.0000 13.03091871    18
CTC1_L_00493026-07
1 61841U 25151PL  26070.40837963  .00000000  00000+0  00000-0 0  9998
2 61841 100.3000 300.0000 0000000   0.0000  60.0000 13.03091871    19
CTC1_L_00493026-08
1 61842U 24853BS  26070.40837963  .00000000  00000+0  00000-0 0  9997
2 61842 100.3000 300.0000 0000000   0.0000 105.0000 13.03091871    10
CTC1_L_00493027-01
1 61843U 24376MT  26070.40837963  .00000000  00000+0  00000-0 0  9998
2 61843 100.3000 312.0000 0000000   0.0000 156.0000 13.03091871    10
CTC1_L_00493027-02
1 61844U 23503PN  26070.40837963  .00000000  00000+0  00000-0 0  9990
2 61844 100.3000 312.0000 0000000   0.0000 201.0000 13.03091871    12
CTC1_L_00493027-03
1 61845U 26722PM  26070.40837963  .00000000  00000+0  00000-0 0  9997
2 61845 100.3000 312.0000 0000000   0.0000 246.0000 13.03091871    12
CTC1_L_00493027-04
1 61846U 24160NG  26070.40837963  .00000000  00000+0  00000-0 0  9992
2 61846 100.3000 312.0000 0000000   0.0000 291.0000 13.03091871    13
CTC1_L_00493027-05
1 61847U 23749PN  26070.40837963  .00000000  00000+0  00000-0 0  9995
2 61847 100.3000 312.0000 0000000   0.0000 336.0000 13.03091871    14
CTC1_L_00493027-06
1 61848U 26068HZ  26070.40837963  .00000000  00000+0  00000-0 0  9993
2 61848 100.3000 312.0000 0000000   0.0000  21.0000 13.03091871    16
CTC1_L_00493027-07
1 61849U 23219BW  26070.40837963  .00000000  00000+0  00000-0 0  9999
2 61849 100.3000 312.0000 0000000   0.0000  66.0000 13.03091871    16
CTC1_L_00493027-08
1 61850U 22473MD  26070.40837963  .00000000  00000+0  00000-0 0  9992
2 61850 100.3000 312.0000 0000000   0.0000 111.0000 13.03091871    19
CTC1_L_00493028-01
1 61851U 22737NU  26070.40837963  .00000000  00000+0  00000-0 0  9996
2 61851 100.3000 324.0000 0000000   0.0000 162.0000 13.03091871    19
CTC1_L_00493028-02
1 61852U 24469NY  26070.40837963  .00000000  00000+0  00000-0 0  9991
2 61852 100.3000 324.0000 0000000   0.0000 207.0000 13.03091871    10
CTC1_L_00493028-03
1 61853U 25938KE  26070.40837963  .00000000  00000+0  00000-0 0  9994
2 61853 100.3000 324.0000 0000000   0.0000 252.0000 13.03091871    11
CTC1_L_00493028-04
1 61854U 24591OZ  26070.40837963  .00000000  00000+0  00000-0 0  9999
2 61854 100.3000 324.0000 0000000   0.0000 297.0000 13.03091871    11
CTC1_L_00493028-05
1 61855U 25018HV  26070.40837963  .00000000  00000+0  00000-0 0  9995
2 61855 100.3000 324.0000 0000000   0.0000 342.0000 13.03091871    13
CTC1_L_00493028-06
1 61856U 22553HY  26070.40837963  .00000000  00000+0  00000-0 0  9997
2 61856 100.3000 324.0000 0000000   0.0000  27.0000 13.03091871    14
CTC1_L_00493028-07
1 61857U 24626XS  26070.40837963  .00000000  00000+0  00000-0 0  9991
2 61857 100.3000 324.0000 0000000   0.0000  72.0000 13.03091871    15
CTC1_L_00493028-08
1 61858U 22346KW  26070.40837963  .00000000  00000+0  00000-0 0  9999
2 61858 100.3000 324.0000 0000000   0.0000 117.0000 13.03091871    16
CTC1_L_00493029-01
1 61859U 23005UX  26070.40837963  .00000000  00000+0  00000-0 0  9993
2 61859 100.3000 336.0000 0000000   0.0000 168.0000 13.03091871    16
CTC1_L_00493029-02
1 61860U 24573BN  26070.40837963  .00000000  00000+0  00000-0 0  9996
2 61860 100.3000 336.0000 0000000   0.0000 213.0000 13.03091871    19
CTC1_L_00493029-03
1 61861U 25706HQ  26070.40837963  .00000000  00000+0  00000-0 0  9996
2 61861 100.3000 336.0000 0000000   0.0000 258.0000 13.03091871    19
CTC1_L_00493029-04
1 61862U 24511EO  26070.40837963  .00000000  00000+0  00000-0 0  9990
2 61862 100.3000 336.0000 0000000   0.0000 303.0000 13.03091871    11
CTC1_L_00493029-05
1 61863U 26022WW  26070.40837963  .00000000  00000+0  00000-0 0  9990
2 61863 100.3000 336.0000 0000000   0.0000 348.0000 13.03091871    11
CTC1_L_00493029-06
1 61864U 25239OW  26070.40837963  .00000000  00000+0  00000-0 0  9990
2 61864 100.3000 336.0000 0000000   0.0000  33.0000 13.03091871    13
CTC1_L_00493029-07
1 61865U 26362AT  26070.40837963  .00000000  00000+0  00000-0 0  9999
2 61865 100.3000 336.0000 0000000   0.0000  78.0000 13.03091871    13
CTC1_L_00493029-08
1 61866U 23408YS  26070.40837963  .00000000  00000+0  00000-0 0  9998
2 61866 100.3000 336.0000 0000000   0.0000 123.0000 13.03091871    15
CTC1_L_00493030-01
1 61867U 26107KS  26070.40837963  .00000000  00000+0  00000-0 0  9998
2 61867 100.3000 348.0000 0000000   0.0000 174.0000 13.03091871    15
CTC1_L_00493030-02
1 61868U 24586TQ  26070.40837963  .00000000  00000+0  00000-0 0  9998
2 61868 100.3000 348.0000 0000000   0.0000 219.0000 13.03091871    16
CTC1_L_00493030-03
1 61869U 23081PM  26070.40837963  .00000000  00000+0  00000-0 0  9998
2 61869 100.3000 348.0000 0000000   0.0000 264.0000 13.03091871    17
CTC1_L_00493030-04
1 61870U 23580PY  26070.40837963  .00000000  00000+0  00000-0 0  9994
2 61870 100.3000 348.0000 0000000   0.0000 309.0000 13.03091871    19
CTC1_L_00493030-05
1 61871U 23491IT  26070.40837963  .00000000  00000+0  00000-0 0  9996
2 61871 100.3000 348.0000 0000000   0.0000 354.0000 13.03091871    10
CTC1_L_00493030-06
1 61872U 24469RN  26070.40837963  .00000000  00000+0  00000-0 0  9993
2 61872 100.3000 348.0000 0000000   0.0000  39.0000 13.03091871    11
CTC1_L_00493030-07
1 61873U 23373FP  26070.40837963  .00000000  00000+0  00000-0 0  9997
2 61873 100.3000 348.0000 0000000   0.0000  84.0000 13.03091871    12
CTC1_L_00493030-08
1 61874U 22038TJ  26070.40837963  .00000000  00000+0  00000-0 0  9995
2 61874 100.3000 348.0000 0000000   0.0000 129.0000 13.03091871    13
